GSAT0101 (PRN E11)      
1 37846U 11060A   24070.59038482 -.00000094  00000+0  00000+0 0  9990
2 37846  57.1269   4.2009 0004048   0.9151 359.0813  1.70475681 76996
GSAT0102 (PRN E12)      
1 37847U 11060B   24071.40188385 -.00000096  00000+0  00000+0 0  9992
2 37847  57.1278   4.1789 0005150 338.9640 204.9451  1.70475125 77016
GSAT0103 (PRN E19)      
1 38857U 12055A   24073.56263735  .00000011  00000+0  00000+0 0  9997
2 38857  55.3604 124.2325 0004857 265.8743  94.1514  1.70473544 71078
GSAT0104 (PRN E20)      
1 38858U 12055B   24072.94527736  .00000016  00000+0  00000+0 0  9998
2 38858  55.3611 124.2511 0002753 260.4655  99.5883  1.70473689 70921
GSAT0201 (PRN E18)      
1 40128U 14050A   24073.14672150 -.00000065  00000+0  00000+0 0  9997
2 40128  49.7535 306.9203 1607096 147.4989 223.5029  1.85519430 62999
GSAT0202 (PRN E14)      
1 40129U 14050B   24072.86639272 -.00000062  00000+0  00000+0 0  9991
2 40129  49.7710 306.0069 1605563 148.2928 222.4689  1.85520054 65150
GSAT0203 (PRN E26)      
1 40544U 15017A   24073.30254099 -.00000102  00000+0  00000+0 0  9991
2 40544  56.9222   4.0745 0004144 291.6220  68.3342  1.70475448 55129
GSAT0204 (PRN E22)      
1 40545U 15017B   24070.03708468 -.00000092  00000+0  00000+0 0  9991
2 40545  56.9284   4.1782 0003510 280.2138  79.7418  1.70475290 18111
GSAT0205 (PRN E24)      
1 40889U 15045A   24073.91162720  .00000028  00000+0  00000+0 0  9996
2 40889  55.2754 244.3995 0005979  43.6154 316.3863  1.70473577 52949
GSAT0206 (PRN E30)      
1 40890U 15045B   24072.95909300  .00000026  00000+0  00000+0 0  9992
2 40890  55.2651 244.4213 0003825  46.2534 313.7313  1.70473483 52958
GSAT0209 (PRN E09)      
1 41174U 15079A   24072.54273282  .00000019  00000+0  00000+0 0  9995
2 41174  55.3788 123.9690 0004545 303.1102  56.9332  1.70474685 50682
GSAT0208 (PRN E08)      
1 41175U 15079B   24072.76243826  .00000017  00000+0  00000+0 0  9999
2 41175  55.3773 123.9609 0004010 301.7771  58.2697  1.70474618 51103
GSAT0211 (PRN E02)      
1 41549U 16030A   24072.88481008  .00000026  00000+0  00000+0 0  9991
2 41549  55.4149 244.4241 0003501  19.0223 340.9438  1.70473627 48583
GSAT0210 (PRN E01)      
1 41550U 16030B   24073.17605700  .00000027  00000+0  00000+0 0  9994
2 41550  55.4125 244.4172 0001273 359.1948   0.7582  1.70473701 48582
GSAT0207 (PRN E07)      
1 41859U 16069A   24074.00958960  .00000007  00000+0  00000+0 0  9998
2 41859  55.0440 123.9534 0005119 290.5739  69.4496  1.70474645 45336
GSAT0212 (PRN E03)      
1 41860U 16069B   24073.27742102  .00000013  00000+0  00000+0 0  9994
2 41860  55.0409 123.9703 0003327 310.1788  49.8750  1.70474842 45573
GSAT0213 (PRN E04)      
1 41861U 16069C   24073.05847354  .00000014  00000+0  00000+0 0  9997
2 41861  55.0433 123.9830 0005348 273.2634  86.7595  1.70473363 45435
GSAT0214 (PRN E05)      
1 41862U 16069D   24071.44490132  .00000025  00000+0  00000+0 0  9999
2 41862  55.0414 124.0214 0004514 273.8436  86.1960  1.70474907 45539
GSAT0215 (PRN E21)      
1 43055U 17079A   24073.10737827  .00000027  00000+0  00000+0 0  9999
2 43055  55.3897 244.2413 0000791  22.8831 337.0734  1.70474321 38903
GSAT0216 (PRN E25)      
1 43056U 17079B   24073.98573423  .00000028  00000+0  00000+0 0  9997
2 43056  55.3897 244.2170 0001740 317.7502  42.1909  1.70474467 38909
GSAT0217 (PRN E27)      
1 43057U 17079C   24073.03300014  .00000027  00000+0  00000+0 0  9997
2 43057  55.3924 244.2419 0002160 350.7256   9.2233  1.70474360 38903
GSAT0218 (PRN E31)      
1 43058U 17079D   24074.42619796  .00000029  00000+0  00000+0 0  9994
2 43058  55.3875 244.2013 0001977 302.8561  57.0806  1.70474377 38928
GSAT0221 (PRN E15)      
1 43564U 18060A   24073.15310948 -.00000102  00000+0  00000+0 0  9996
2 43564  57.3028   4.0542 0005044 303.0742  56.8777  1.70475060 35093
GSAT0222 (PRN E33)      
1 43565U 18060B   24071.02511666 -.00000095  00000+0  00000+0 0  9992
2 43565  57.3055   4.1135 0003478 281.3546  78.6030  1.70474954 35097
GSAT0219 (PRN E36)      
1 43566U 18060C   24073.59351374 -.00000103  00000+0  00000+0 0  9995
2 43566  57.3052   4.0464 0004542 314.0609  45.9024  1.70475319 35115
GSAT0220 (PRN E13)      
1 43567U 18060D   24073.22747821 -.00000102  00000+0  00000+0 0  9991
2 43567  57.3051   4.0560 0004572 309.8424  50.1177  1.70475162 35092
GSAT0223 (PRN E34)      
1 49809U 21116A   24074.42529437 -.00000106  00000+0  00000+0 0  9990
2 49809  57.2961   3.9185 0001376 281.4869 183.9787  1.70475239 14111
GSAT0224 (PRN E10)      
1 49810U 21116B   24072.02147203 -.00000098  00000+0  00000+0 0  9993
2 49810  57.2969   3.9820 0001552 299.2718 243.4235  1.70475159 14103
